{"id":13747,"name":"NAVSTAR 68 (USA 242)","type":1,"position":{"x":3666.171875,"y":22390.41796875,"z":13826.6025390625},"totalVelocity":3.872614418377769,"velocity":{"x":-2.3297133445739746,"y":1.9343613386154175,"z":-2.414088726043701},"active":true,"apogee":20543.654305699725,"argOfPerigee":47.4783,"bstar":0,"eccentricity":0.0133324,"epochDay":108.89338265,"epochYear":25,"inclination":54.8502,"intlDes":"2013-023A","meanAnomaly":313.631,"meanMoDev1":1e-8,"meanMoDev2":0,"meanMotion":2.00561533,"options":{"notes":""},"perigee":19835.422856541856,"period":717.9841410566004,"rightAscension":286.2216,"satrec":{"error":0,"satnum":"39166","epochyr":25,"epochdays":108.89338265,"ndot":1e-8,"nddot":0,"bstar":0,"inclo":0.9573165853773937,"nodeo":4.995509310326202,"ecco":0.0133324,"argpo":0.8286526582496238,"mo":5.473893586322335,"no":0.008751150076049572,"jdsatepoch":2460784.39338265,"isimp":true,"method":"d","aycof":0.0009585383389704019,"con41":-0.004881481295286871,"cc1":0,"cc4":5.822582196171248e-14,"cc5":1.5901967946360732e-10,"d2":0,"d3":0,"d4":0,"delmo":1.0369061793322931,"eta":0.017613839827467764,"argpdot":2.693393487584967e-7,"omgcof":0,"sinmao":-0.7237986353792497,"t":3146.6142012923956,"t2cof":0,"t3cof":0,"t4cof":0,"t5cof":0,"x1mth2":0.6682938270984289,"x7thm1":1.3219432103109976,"mdot":0.00875114776275752,"nodedot":-4.719617036262693e-7,"xlcof":0.0017881128472836928,"xmcof":0,"nodecf":0,"irez":0,"d2201":0,"d2211":0,"d3210":0,"d3222":0,"d4410":0,"d4422":0,"d5220":0,"d5232":0,"d5421":0,"d5433":0,"dedt":2.401703444739251e-10,"del1":0,"del2":0,"del3":0,"didt":-1.0287412780399301e-8,"dmdt":4.8976186448841244e-8,"dnodt":-1.895361651096274e-8,"domdt":-4.19310591820695e-8,"e3":0.000013680589950635349,"ee2":3.7223850451980874e-7,"peo":0,"pgho":0,"pho":0,"PInco":0,"plo":0,"se2":0.000049974018018825946,"se3":-0.00007072898295239421,"sgh2":0.004475958447734828,"sgh3":0.002778146662486822,"sgh4":-0.0001028828887309863,"sh2":0.0003352241138461238,"sh3":-0.0011209305914976063,"si2":-0.001477533963518846,"si3":0.00016184322250226342,"sl2":-0.003398297156767364,"sl3":-0.000495141004532618,"sl4":0.00024009970159266853,"gsto":2.947200514223006,"xfact":0,"xgh2":-0.0008364696907748508,"xgh3":0.00004512996636037589,"xgh4":-0.00005416182822704662,"xh2":0.00009079293825241744,"xh3":0.0001769115131813047,"xi2":0.00014031607582700497,"xi3":-0.0001816029114392077,"xl2":0.0004432813234330506,"xl3":-0.0001409537917487835,"xl4":0.00012639846096302936,"xlamo":0,"zmol":4.320576647314823,"zmos":1.8132773826672945,"atime":0,"xli":0,"xni":0,"tumin":13.446839696959309,"mus":398600.8,"radiusearthkm":6378.135,"xke":0.07436691613317342,"j2":0.001082616,"j3":-0.00000253881,"j4":-0.00000165597,"j3oj2":-0.002345069720011528,"vkmpersec":7.905370510517634,"operationmode":"i","init":false,"a":4.164310402202203,"alta":3.219830654208523,"altp":3.1087901501958815},"sccNum":"39166","sccNum5":"39166","sccNum6":"39166","tle1":"1 39166U 13023A   25108.89338265  .00000001  00000+0  00000+0 0 99993","tle2":"2 39166  54.8502 286.2216 0133324  47.4783 313.6310  2.00561533 87374","semiMajorAxis":26560.538581120793,"semiMinorAxis":26558.177869967134,"configuration":"3-Axis stabilized","country":"US","dryMass":"1500","equipment":"?","launchDate":"2013-05-15T00:00:00.000Z","launchMass":"1630","launchSite":"AFETR","launchPad":"SLC41","launchVehicle":"Atlas V 401","lifetime":"","maneuver":"","manufacturer":"BOES","mission":"Navigation","bus":"GPS IIF","motor":"AOCS","owner":"AFSMC","payload":"GPS SVN 66","power":"","purpose":"Navigation","length":"2.5","diameter":"1.8","shape":"Box + 2 Pan","span":"18","user":"","source":"Celestrak","vmag":5.867741935483871,"rcs":11,"altId":"","altName":"GPS IIF-4","status":"+"}